[{"OBJECT_NAME":"SES-2","OBJECT_ID":"2011-049A","EPOCH":"2026-04-25T20:49:38.771040","MEAN_MOTION":1.00272686,"ECCENTRICITY":0.0002762,"INCLINATION":0.0584,"RA_OF_ASC_NODE":75.799,"ARG_OF_PERICENTER":315.3351,"MEAN_ANOMALY":48.1532,"EPHEMERIS_TYPE":0,"CLASSIFICATION_TYPE":"U","NORAD_CAT_ID":37809,"ELEMENT_SET_NO":999,"REV_AT_EPOCH":5343,"BSTAR":0,"MEAN_MOTION_DOT":-2.09e-6,"MEAN_MOTION_DDOT":0},{"OBJECT_NAME":"QUETZSAT 1","OBJECT_ID":"2011-054A","EPOCH":"2026-04-25T20:49:38.771040","MEAN_MOTION":1.0027223,"ECCENTRICITY":0.000251,"INCLINATION":0.0543,"RA_OF_ASC_NODE":61.9459,"ARG_OF_PERICENTER":344.764,"MEAN_ANOMALY":42.5768,"EPHEMERIS_TYPE":0,"CLASSIFICATION_TYPE":"U","NORAD_CAT_ID":37826,"ELEMENT_SET_NO":999,"REV_AT_EPOCH":4934,"BSTAR":0,"MEAN_MOTION_DOT":-2.55e-6,"MEAN_MOTION_DDOT":0},{"OBJECT_NAME":"SES-4","OBJECT_ID":"2012-007A","EPOCH":"2026-04-25T08:22:15.004992","MEAN_MOTION":1.00271592,"ECCENTRICITY":0.0002597,"INCLINATION":0.023,"RA_OF_ASC_NODE":52.1996,"ARG_OF_PERICENTER":2.1421,"MEAN_ANOMALY":262.5989,"EPHEMERIS_TYPE":0,"CLASSIFICATION_TYPE":"U","NORAD_CAT_ID":38087,"ELEMENT_SET_NO":999,"REV_AT_EPOCH":5169,"BSTAR":0,"MEAN_MOTION_DOT":-1.82e-6,"MEAN_MOTION_DDOT":0},{"OBJECT_NAME":"SES-5","OBJECT_ID":"2012-036A","EPOCH":"2026-04-25T15:20:41.565408","MEAN_MOTION":1.00271793,"ECCENTRICITY":0.000198,"INCLINATION":0.0576,"RA_OF_ASC_NODE":301.7705,"ARG_OF_PERICENTER":87.1365,"MEAN_ANOMALY":59.8945,"EPHEMERIS_TYPE":0,"CLASSIFICATION_TYPE":"U","NORAD_CAT_ID":38652,"ELEMENT_SET_NO":999,"REV_AT_EPOCH":4393,"BSTAR":0,"MEAN_MOTION_DOT":2.0e-7,"MEAN_MOTION_DDOT":0},{"OBJECT_NAME":"ASTRA 2F","OBJECT_ID":"2012-051A","EPOCH":"2026-04-25T18:52:40.999296","MEAN_MOTION":1.00271239,"ECCENTRICITY":5.85e-5,"INCLINATION":0.0384,"RA_OF_ASC_NODE":250.8189,"ARG_OF_PERICENTER":21.1254,"MEAN_ANOMALY":253.2251,"EPHEMERIS_TYPE":0,"CLASSIFICATION_TYPE":"U","NORAD_CAT_ID":38778,"ELEMENT_SET_NO":999,"REV_AT_EPOCH":4061,"BSTAR":0,"MEAN_MOTION_DOT":1.36e-6,"MEAN_MOTION_DDOT":0},{"OBJECT_NAME":"SES-6","OBJECT_ID":"2013-026A","EPOCH":"2026-04-25T20:15:48.028032","MEAN_MOTION":1.00271216,"ECCENTRICITY":0.0002378,"INCLINATION":0.0243,"RA_OF_ASC_NODE":341.5646,"ARG_OF_PERICENTER":56.7305,"MEAN_ANOMALY":79.0035,"EPHEMERIS_TYPE":0,"CLASSIFICATION_TYPE":"U","NORAD_CAT_ID":39172,"ELEMENT_SET_NO":999,"REV_AT_EPOCH":4720,"BSTAR":0,"MEAN_MOTION_DOT":-2.75e-6,"MEAN_MOTION_DDOT":0},{"OBJECT_NAME":"O3B FM5","OBJECT_ID":"2013-031A","EPOCH":"2026-04-25T16:02:59.629344","MEAN_MOTION":5.0011647,"ECCENTRICITY":0.0003142,"INCLINATION":0.1023,"RA_OF_ASC_NODE":0.2289,"ARG_OF_PERICENTER":23.5681,"MEAN_ANOMALY":336.2158,"EPHEMERIS_TYPE":0,"CLASSIFICATION_TYPE":"U","NORAD_CAT_ID":39188,"ELEMENT_SET_NO":999,"REV_AT_EPOCH":23441,"BSTAR":0,"MEAN_MOTION_DOT":-2.7e-7,"MEAN_MOTION_DDOT":0},{"OBJECT_NAME":"O3B FM4","OBJECT_ID":"2013-031B","EPOCH":"2026-04-25T14:06:55.876608","MEAN_MOTION":5.00115164,"ECCENTRICITY":0.0005144,"INCLINATION":0.0495,"RA_OF_ASC_NODE":345.9615,"ARG_OF_PERICENTER":48.3614,"MEAN_ANOMALY":325.7086,"EPHEMERIS_TYPE":0,"CLASSIFICATION_TYPE":"U","NORAD_CAT_ID":39189,"ELEMENT_SET_NO":999,"REV_AT_EPOCH":23441,"BSTAR":0,"MEAN_MOTION_DOT":-2.7e-7,"MEAN_MOTION_DDOT":0},{"OBJECT_NAME":"O3B FM2","OBJECT_ID":"2013-031C","EPOCH":"2026-04-25T15:41:23.264736","MEAN_MOTION":5.00115967,"ECCENTRICITY":0.0002788,"INCLINATION":0.0473,"RA_OF_ASC_NODE":339.2136,"ARG_OF_PERICENTER":53.0257,"MEAN_ANOMALY":327.7759,"EPHEMERIS_TYPE":0,"CLASSIFICATION_TYPE":"U","NORAD_CAT_ID":39190,"ELEMENT_SET_NO":999,"REV_AT_EPOCH":23448,"BSTAR":0,"MEAN_MOTION_DOT":-2.7e-7,"MEAN_MOTION_DDOT":0},{"OBJECT_NAME":"O3B PFM","OBJECT_ID":"2013-031D","EPOCH":"2026-04-23T11:15:27.446688","MEAN_MOTION":5.00115912,"ECCENTRICITY":0.0004841,"INCLINATION":0.07,"RA_OF_ASC_NODE":358.7224,"ARG_OF_PERICENTER":42.5713,"MEAN_ANOMALY":318.7416,"EPHEMERIS_TYPE":0,"CLASSIFICATION_TYPE":"U","NORAD_CAT_ID":39191,"ELEMENT_SET_NO":999,"REV_AT_EPOCH":23393,"BSTAR":0,"MEAN_MOTION_DOT":-2.6e-7,"MEAN_MOTION_DDOT":0},{"OBJECT_NAME":"ASTRA 2E","OBJECT_ID":"2013-056A","EPOCH":"2026-04-25T18:52:48.485856","MEAN_MOTION":1.00272069,"ECCENTRICITY":0.0002322,"INCLINATION":0.0616,"RA_OF_ASC_NODE":5.2399,"ARG_OF_PERICENTER":30.062,"MEAN_ANOMALY":130.215,"EPHEMERIS_TYPE":0,"CLASSIFICATION_TYPE":"U","NORAD_CAT_ID":39285,"ELEMENT_SET_NO":999,"REV_AT_EPOCH":4589,"BSTAR":0,"MEAN_MOTION_DOT":1.37e-6,"MEAN_MOTION_DDOT":0},{"OBJECT_NAME":"SES-8","OBJECT_ID":"2013-071A","EPOCH":"2026-04-25T20:57:21.716064","MEAN_MOTION":1.00272173,"ECCENTRICITY":0.000237,"INCLINATION":0.0168,"RA_OF_ASC_NODE":261.0038,"ARG_OF_PERICENTER":150.4716,"MEAN_ANOMALY":211.7539,"EPHEMERIS_TYPE":0,"CLASSIFICATION_TYPE":"U","NORAD_CAT_ID":39460,"ELEMENT_SET_NO":999,"REV_AT_EPOCH":4390,"BSTAR":0,"MEAN_MOTION_DOT":-2.83e-6,"MEAN_MOTION_DDOT":0},{"OBJECT_NAME":"ASTRA 5B","OBJECT_ID":"2014-011B","EPOCH":"2026-04-25T18:51:18.629856","MEAN_MOTION":1.00269121,"ECCENTRICITY":0.0002691,"INCLINATION":0.0696,"RA_OF_ASC_NODE":306.3881,"ARG_OF_PERICENTER":64.5101,"MEAN_ANOMALY":149.2289,"EPHEMERIS_TYPE":0,"CLASSIFICATION_TYPE":"U","NORAD_CAT_ID":39617,"ELEMENT_SET_NO":999,"REV_AT_EPOCH":4414,"BSTAR":0,"MEAN_MOTION_DOT":1.23e-6,"MEAN_MOTION_DDOT":0},{"OBJECT_NAME":"O3B FM3","OBJECT_ID":"2014-038A","EPOCH":"2026-04-25T12:49:50.913120","MEAN_MOTION":5.00115585,"ECCENTRICITY":0.0001396,"INCLINATION":0.0515,"RA_OF_ASC_NODE":355.302,"ARG_OF_PERICENTER":105.0225,"MEAN_ANOMALY":259.6893,"EPHEMERIS_TYPE":0,"CLASSIFICATION_TYPE":"U","NORAD_CAT_ID":40079,"ELEMENT_SET_NO":999,"REV_AT_EPOCH":21041,"BSTAR":0,"MEAN_MOTION_DOT":-2.7e-7,"MEAN_MOTION_DDOT":0},{"OBJECT_NAME":"O3B FM7","OBJECT_ID":"2014-038B","EPOCH":"2026-04-25T01:56:32.838432","MEAN_MOTION":5.00115615,"ECCENTRICITY":0.00042181,"INCLINATION":0.0544,"RA_OF_ASC_NODE":347.6471,"ARG_OF_PERICENTER":28.2337,"MEAN_ANOMALY":344.1306,"EPHEMERIS_TYPE":0,"CLASSIFICATION_TYPE":"U","NORAD_CAT_ID":40080,"ELEMENT_SET_NO":999,"REV_AT_EPOCH":21522,"BSTAR":0,"MEAN_MOTION_DOT":-2.7e-7,"MEAN_MOTION_DDOT":0},{"OBJECT_NAME":"O3B FM6","OBJECT_ID":"2014-038C","EPOCH":"2026-04-25T16:58:56.767872","MEAN_MOTION":5.00115683,"ECCENTRICITY":0.0002643,"INCLINATION":0.0521,"RA_OF_ASC_NODE":352.0239,"ARG_OF_PERICENTER":41.6225,"MEAN_ANOMALY":326.3686,"EPHEMERIS_TYPE":0,"CLASSIFICATION_TYPE":"U","NORAD_CAT_ID":40081,"ELEMENT_SET_NO":999,"REV_AT_EPOCH":21520,"BSTAR":0,"MEAN_MOTION_DOT":-2.7e-7,"MEAN_MOTION_DDOT":0},{"OBJECT_NAME":"O3B FM8","OBJECT_ID":"2014-038D","EPOCH":"2026-04-24T23:04:18.698592","MEAN_MOTION":5.00115952,"ECCENTRICITY":0.00027055,"INCLINATION":0.0525,"RA_OF_ASC_NODE":351.0264,"ARG_OF_PERICENTER":46.0546,"MEAN_ANOMALY":322.9359,"EPHEMERIS_TYPE":0,"CLASSIFICATION_TYPE":"U","NORAD_CAT_ID":40082,"ELEMENT_SET_NO":999,"REV_AT_EPOCH":21528,"BSTAR":0,"MEAN_MOTION_DOT":-2.7e-7,"MEAN_MOTION_DDOT":0}]
